{"type": "FeatureCollection", "features": [ {"type": "Feature", "properties": {"norad_id": 33939, "name": "COSMOS 2251 DEB", "group": "cosmos-2251-debris", "lat": 4.83149830894258, "lon": -115.43606663008036, "alt_km": 570.2596644966625, "timestamp": "2025-12-19T22:41:52.789035+00:00", "meta": {"OBJECT_NAME": "COSMOS 2251 DEB", "OBJECT_ID": "1993-036EU", "EPOCH": "2025-12-19T05:55:06.240000", "MEAN_MOTION": 15.00334458, "ECCENTRICITY": 0.0004301, "INCLINATION": 74.0072, "RA_OF_ASC_NODE": 67.3766, "ARG_OF_PERICENTER": 31.1681, "MEAN_ANOMALY": 328.976, "EPHEMERIS_TYPE": 0, "CLASSIFICATION_TYPE": "U", "NORAD_CAT_ID": 33939, "ELEMENT_SET_NO": 999, "REV_AT_EPOCH": 88850, "BSTAR": 0.0017875, "MEAN_MOTION_DOT": 0.00022468, "MEAN_MOTION_DDOT": 0}, "tle": {"line1": "1 33939U 93036EU  25353.24660000  .00022468  00000+0  17875-2 0  9995", "line2": "2 33939  74.0072  67.3766 0004301  31.1681 328.9760 15.00334458888509"}}, "geometry": {"type": "Point", "coordinates": [-115.43606663008036, 4.83149830894258]}}, {"type": "Feature", "properties": {"norad_id": 33940, "name": "COSMOS 2251 DEB", "group": "cosmos-2251-debris", "lat": -43.64903440995255, "lon": 113.93241489290426, "alt_km": 705.0814352931238, "timestamp": "2025-12-19T22:41:52.789045+00:00", "meta": {"OBJECT_NAME": "COSMOS 2251 DEB", "OBJECT_ID": "1993-036EV", "EPOCH": "2025-12-19T16:23:44.484000", "MEAN_MOTION": 14.58855983, "ECCENTRICITY": 0.0010989, "INCLINATION": 74.0392, "RA_OF_ASC_NODE": 130.2755, "ARG_OF_PERICENTER": 210.6135, "MEAN_ANOMALY": 164.9078, "EPHEMERIS_TYPE": 0, "CLASSIFICATION_TYPE": "U", "NORAD_CAT_ID": 33940, "ELEMENT_SET_NO": 999, "REV_AT_EPOCH": 88695, "BSTAR": 0.00074044, "MEAN_MOTION_DOT": 3.441e-05, "MEAN_MOTION_DDOT": 0}, "tle": {"line1": "1 33940U 93036EV  25353.68315375  .00003441  00000+0  74044-3 0  9999", "line2": "2 33940  74.0392 130.2755 0010989 210.6135 164.9078 14.58855983886951"}}, "geometry": {"type": "Point", "coordinates": [113.93241489290426, -43.64903440995255]}}, {"type": "Feature", "properties": {"norad_id": 33942, "name": "COSMOS 2251 DEB", "group": "cosmos-2251-debris", "lat": -27.594520877858592, "lon": -107.04601365724685, "alt_km": 756.1465398086038, "timestamp": "2025-12-19T22:41:52.789055+00:00", "meta": {"OBJECT_NAME": "COSMOS 2251 DEB", "OBJECT_ID": "1993-036EX", "EPOCH": "2025-12-19T11:56:44.437920", "MEAN_MOTION": 14.37997882, "ECCENTRICITY": 0.0020603, "INCLINATION": 74.0365, "RA_OF_ASC_NODE": 262.383, "ARG_OF_PERICENTER": 344.3667, "MEAN_ANOMALY": 188.6471, "EPHEMERIS_TYPE": 0, "CLASSIFICATION_TYPE": "U", "NORAD_CAT_ID": 33942, "ELEMENT_SET_NO": 999, "REV_AT_EPOCH": 88231, "BSTAR": 0.00016513, "MEAN_MOTION_DOT": 4.74e-06, "MEAN_MOTION_DDOT": 0}, "tle": {"line1": "1 33942U 93036EX  25353.49773655  .00000474  00000+0  16513-3 0  9999", "line2": "2 33942  74.0365 262.3830 0020603 344.3667 188.6471 14.37997882882311"}}, "geometry": {"type": "Point", "coordinates": [-107.04601365724685, -27.594520877858592]}}, {"type": "Feature", "properties": {"norad_id": 33944, "name": "COSMOS 2251 DEB", "group": "cosmos-2251-debris", "lat": -9.413582337445082, "lon": 118.38828056694825, "alt_km": 844.4105902952206, "timestamp": "2025-12-19T22:41:52.789065+00:00", "meta": {"OBJECT_NAME": "COSMOS 2251 DEB", "OBJECT_ID": "1993-036EZ", "EPOCH": "2025-12-19T07:32:06.789408", "MEAN_MOTION": 14.37357165, "ECCENTRICITY": 0.0112458, "INCLINATION": 74.0406, "RA_OF_ASC_NODE": 296.8308, "ARG_OF_PERICENTER": 34.7445, "MEAN_ANOMALY": 126.5793, "EPHEMERIS_TYPE": 0, "CLASSIFICATION_TYPE": "U", "NORAD_CAT_ID": 33944, "ELEMENT_SET_NO": 999, "REV_AT_EPOCH": 88122, "BSTAR": 0.00026203, "MEAN_MOTION_DOT": 8.14e-06, "MEAN_MOTION_DDOT": 0}, "tle": {"line1": "1 33944U 93036EZ  25353.31396747  .00000814  00000+0  26203-3 0  9990", "line2": "2 33944  74.0406 296.8308 0112458  34.7445 126.5793 14.37357165881226"}}, "geometry": {"type": "Point", "coordinates": [118.38828056694825, -9.413582337445082]}}, {"type": "Feature", "properties": {"norad_id": 33945, "name": "COSMOS 2251 DEB", "group": "cosmos-2251-debris", "lat": -74.0113199331983, "lon": -154.9527824700055, "alt_km": 787.9287298508716, "timestamp": "2025-12-19T22:41:52.789075+00:00", "meta": {"OBJECT_NAME": "COSMOS 2251 DEB", "OBJECT_ID": "1993-036FA", "EPOCH": "2025-12-19T13:04:19.180416", "MEAN_MOTION": 14.34605926, "ECCENTRICITY": 0.0022203, "INCLINATION": 74.0302, "RA_OF_ASC_NODE": 293.798, "ARG_OF_PERICENTER": 18.2897, "MEAN_ANOMALY": 341.9048, "EPHEMERIS_TYPE": 0, "CLASSIFICATION_TYPE": "U", "NORAD_CAT_ID": 33945, "ELEMENT_SET_NO": 999, "REV_AT_EPOCH": 88113, "BSTAR": 9.4015e-05, "MEAN_MOTION_DOT": 2.4e-06, "MEAN_MOTION_DDOT": 0}, "tle": {"line1": "1 33945U 93036FA  25353.54466644  .00000240  00000+0  94015-4 0  9990", "line2": "2 33945  74.0302 293.7980 0022203  18.2897 341.9048 14.34605926881134"}}, "geometry": {"type": "Point", "coordinates": [-154.9527824700055, -74.0113199331983]}}, {"type": "Feature", "properties": {"norad_id": 33948, "name": "COSMOS 2251 DEB", "group": "cosmos-2251-debris", "lat": 31.87370677829676, "lon": 101.6598307681988, "alt_km": 783.4742319932302, "timestamp": "2025-12-19T22:41:52.789085+00:00", "meta": {"OBJECT_NAME": "COSMOS 2251 DEB", "OBJECT_ID": "1993-036FD", "EPOCH": "2025-12-19T13:39:23.128416", "MEAN_MOTION": 14.35636848, "ECCENTRICITY": 0.0023033, "INCLINATION": 74.0359, "RA_OF_ASC_NODE": 292.6037, "ARG_OF_PERICENTER": 6.7401, "MEAN_ANOMALY": 353.4056, "EPHEMERIS_TYPE": 0, "CLASSIFICATION_TYPE": "U", "NORAD_CAT_ID": 33948, "ELEMENT_SET_NO": 999, "REV_AT_EPOCH": 88121, "BSTAR": 0.00014164, "MEAN_MOTION_DOT": 3.84e-06, "MEAN_MOTION_DDOT": 0}, "tle": {"line1": "1 33948U 93036FD  25353.56901769  .00000384  00000+0  14164-3 0  9992", "line2": "2 33948  74.0359 292.6037 0023033   6.7401 353.4056 14.35636848881219"}}, "geometry": {"type": "Point", "coordinates": [101.6598307681988, 31.87370677829676]}}, {"type": "Feature", "properties": {"norad_id": 33971, "name": "COSMOS 2251 DEB", "group": "cosmos-2251-debris", "lat": -37.85959700246131, "lon": -132.45070913463277, "alt_km": 752.741251404047, "timestamp": "2025-12-19T22:41:52.789095+00:00", "meta": {"OBJECT_NAME": "COSMOS 2251 DEB", "OBJECT_ID": "1993-036FE", "EPOCH": "2025-12-19T03:34:47.209728", "MEAN_MOTION": 14.39736064, "ECCENTRICITY": 0.00187953, "INCLINATION": 74.0245, "RA_OF_ASC_NODE": 241.8878, "ARG_OF_PERICENTER": 341.2858, "MEAN_ANOMALY": 172.0913, "EPHEMERIS_TYPE": 0, "CLASSIFICATION_TYPE": "U", "NORAD_CAT_ID": 33971, "ELEMENT_SET_NO": 999, "REV_AT_EPOCH": 88231, "BSTAR": 0.00020120345, "MEAN_MOTION_DOT": 6.05e-06, "MEAN_MOTION_DDOT": 0}, "tle": {"line1": "1 33971U 93036FE  25353.14915752  .00000605  00000+0  20120-3 0  9994", "line2": "2 33971  74.0245 241.8878 0018795 341.2858 172.0913 14.39736064882314"}}, "geometry": {"type": "Point", "coordinates": [-132.45070913463277, -37.85959700246131]}}, {"type": "Feature", "properties": {"norad_id": 33972, "name": "COSMOS 2251 DEB", "group": "cosmos-2251-debris", "lat": 11.284815136185273, "lon": -5.890216152149111, "alt_km": 859.9460209837689, "timestamp": "2025-12-19T22:41:52.789105+00:00", "meta": {"OBJECT_NAME": "COSMOS 2251 DEB", "OBJECT_ID": "1993-036FF", "EPOCH": "2025-12-18T23:12:46.905120", "MEAN_MOTION": 14.36266996, "ECCENTRICITY": 0.01235996, "INCLINATION": 73.9933, "RA_OF_ASC_NODE": 179.1952, "ARG_OF_PERICENTER": 345.5656, "MEAN_ANOMALY": 165.109, "EPHEMERIS_TYPE": 0, "CLASSIFICATION_TYPE": "U", "NORAD_CAT_ID": 33972, "ELEMENT_SET_NO": 999, "REV_AT_EPOCH": 87163, "BSTAR": 0.00091407124, "MEAN_MOTION_DOT": 2.886e-05, "MEAN_MOTION_DDOT": 0}, "tle": {"line1": "1 33972U 93036FF  25352.96720955  .00002886  00000+0  91407-3 0  9992", "line2": "2 33972  73.9933 179.1952 0123599 345.5656 165.1090 14.36266996871636"}}, "geometry": {"type": "Point", "coordinates": [-5.890216152149111, 11.284815136185273]}}, {"type": "Feature", "properties": {"norad_id": 33973, "name": "COSMOS 2251 DEB", "group": "cosmos-2251-debris", "lat": 23.42324706312444, "lon": -97.6968230390646, "alt_km": 751.8327094615133, "timestamp": "2025-12-19T22:41:52.789115+00:00", "meta": {"OBJECT_NAME": "COSMOS 2251 DEB", "OBJECT_ID": "1993-036FG", "EPOCH": "2025-12-18T14:56:57.974208", "MEAN_MOTION": 14.4539705, "ECCENTRICITY": 0.00473892, "INCLINATION": 74.0087, "RA_OF_ASC_NODE": 91.9086, "ARG_OF_PERICENTER": 269.2619, "MEAN_ANOMALY": 206.1103, "EPHEMERIS_TYPE": 0, "CLASSIFICATION_TYPE": "U", "NORAD_CAT_ID": 33973, "ELEMENT_SET_NO": 999, "REV_AT_EPOCH": 88685, "BSTAR": 0.00011417305, "MEAN_MOTION_DOT": 3.79e-06, "MEAN_MOTION_DDOT": 0}, "tle": {"line1": "1 33973U 93036FG  25352.62289322  .00000379  00000+0  11417-3 0  9992", "line2": "2 33973  74.0087  91.9086 0047389 269.2619 206.1103 14.45397050886858"}}, "geometry": {"type": "Point", "coordinates": [-97.6968230390646, 23.42324706312444]}}, {"type": "Feature", "properties": {"norad_id": 33975, "name": "COSMOS 2251 DEB", "group": "cosmos-2251-debris", "lat": 14.277095735261527, "lon": 76.02855751051247, "alt_km": 1029.8072847872518, "timestamp": "2025-12-19T22:41:52.789125+00:00", "meta": {"OBJECT_NAME": "COSMOS 2251 DEB", "OBJECT_ID": "1993-036FJ", "EPOCH": "2025-12-19T05:28:53.307264", "MEAN_MOTION": 14.00537307, "ECCENTRICITY": 0.0191115, "INCLINATION": 73.8018, "RA_OF_ASC_NODE": 73.0471, "ARG_OF_PERICENTER": 204.9448, "MEAN_ANOMALY": 154.2359, "EPHEMERIS_TYPE": 0, "CLASSIFICATION_TYPE": "U", "NORAD_CAT_ID": 33975, "ELEMENT_SET_NO": 999, "REV_AT_EPOCH": 85920, "BSTAR": 0.000393, "MEAN_MOTION_DOT": 6.58e-06, "MEAN_MOTION_DDOT": 0}, "tle": {"line1": "1 33975U 93036FJ  25353.22839476  .00000658  00000+0  39300-3 0  9993", "line2": "2 33975  73.8018  73.0471 0191115 204.9448 154.2359 14.00537307859200"}}, "geometry": {"type": "Point", "coordinates": [76.02855751051247, 14.277095735261527]}}]}